     2              NAVIGATION DATA                         RINEX VERSION / TYPE
CCRINEXN V1.6.0 UX  CDDIS               22-MAY-18 14:58     PGM / RUN BY / DATE 
IGS BROADCAST EPHEMERIS FILE                                COMMENT             
    0.1024D-07  0.1490D-07 -0.5960D-07 -0.1192D-06          ION ALPHA           
    0.8806D+05  0.3277D+05 -0.1966D+06 -0.1966D+06          ION BETA            
   -0.186264514923D-08-0.266453525910D-14   405504     1997 DELTA-UTC: A0,A1,T,W
    18                                                      LEAP SECONDS        
                                                            END OF HEADER       
12 18  4 17 11 59 44.0 0.339074060321D-03-0.227373675443D-11 0.000000000000D+00
    0.000000000000D+00-0.764687500000D+02 0.430232205417D-08 0.123293054828D+00
   -0.397488474846D-05 0.718078517821D-02 0.300817191601D-05 0.515360473633D+04
    0.215984000000D+06-0.558793544769D-07 0.225016986520D+01 0.180676579475D-06
    0.986776717748D+00 0.334468750000D+03 0.958253117009D+00-0.834749069867D-08
   -0.423946239225D-09 0.100000000000D+01 0.199700000000D+04 0.000000000000D+00
    0.200000000000D+01 0.000000000000D+00-0.125728547573D-07 0.000000000000D+00
    0.213450000000D+06 0.000000000000D+00 0.000000000000D+00 0.000000000000D+00
27 18  4 17 11 59 44.0 0.370189547539D-03-0.113686837722D-12 0.000000000000D+00
    0.220000000000D+02-0.837187500000D+02 0.366943856113D-08-0.266486851817D+01
   -0.430643558502D-05 0.584394857287D-02 0.124350190163D-04 0.515368862152D+04
    0.215984000000D+06 0.372529029846D-08-0.305290631277D+01-0.745058059692D-08
    0.977558970409D+00 0.150625000000D+03 0.390724864973D+00-0.756388649481D-08
    0.467876631797D-10 0.100000000000D+01 0.199700000000D+04 0.000000000000D+00
    0.200000000000D+01 0.000000000000D+00 0.139698386192D-08 0.220000000000D+02
    0.215058000000D+06 0.400000000000D+01 0.000000000000D+00 0.000000000000D+00
30 18  4 17 11 59 44.0 0.837896950543D-04-0.397903932026D-11 0.000000000000D+00
    0.200000000000D+02 0.117250000000D+03 0.511771317330D-08 0.865642848082D+00
    0.611692667007D-05 0.326540542301D-02 0.425800681114D-05 0.515375313568D+04
    0.215984000000D+06 0.558793544769D-07 0.119210886380D+01 0.335276126862D-07
    0.944477880998D+00 0.283656250000D+03-0.312026160369D+01-0.861393023334D-08
    0.248581783001D-09 0.100000000000D+01 0.199700000000D+04 0.000000000000D+00
    0.200000000000D+01 0.000000000000D+00 0.372529029846D-08 0.200000000000D+02
    0.208800000000D+06 0.400000000000D+01 0.000000000000D+00 0.000000000000D+00
 1 18  4 17 12  0  0.0-0.413269735873D-04-0.261479726760D-11 0.000000000000D+00
    0.320000000000D+02 0.551562500000D+02 0.445697136503D-08 0.141664458041D+01
    0.281073153019D-05 0.761411804706D-02 0.815838575363D-05 0.515366975403D+04
    0.216000000000D+06-0.931322574615D-07-0.199682039122D+01 0.108033418655D-06
    0.970543554075D+00 0.226406250000D+03 0.613347064253D+00-0.813855328913D-08
    0.589310261424D-09 0.100000000000D+01 0.199700000000D+04 0.000000000000D+00
    0.200000000000D+01 0.000000000000D+00 0.558793544769D-08 0.320000000000D+02
    0.208800000000D+06 0.400000000000D+01 0.000000000000D+00 0.000000000000D+00
 2 18  4 17 12  0  0.0 0.142021104693D-03-0.112549969344D-10 0.000000000000D+00
    0.570000000000D+02 0.489062500000D+02 0.485055918812D-08 0.176208299783D+01
    0.239536166191D-05 0.178644420812D-01 0.896863639355D-05 0.515371398926D+04
    0.216000000000D+06-0.117346644402D-06-0.205711734964D+01-0.430271029472D-06
    0.949637154188D+00 0.197750000000D+03-0.186647536320D+01-0.819391273793D-08
    0.777175229611D-09 0.100000000000D+01 0.199700000000D+04 0.000000000000D+00
    0.200000000000D+01 0.000000000000D+00-0.204890966415D-07 0.570000000000D+02
    0.208800000000D+06 0.400000000000D+01 0.000000000000D+00 0.000000000000D+00
 3 18  4 17 12  0  0.0 0.524297356605D-04 0.784439180279D-11 0.000000000000D+00
    0.280000000000D+02-0.383750000000D+02 0.506771109051D-08 0.541095437723D+00
   -0.211410224438D-05 0.128525344189D-02 0.529922544956D-05 0.515377257347D+04
    0.216000000000D+06 0.149011611938D-07-0.953541135410D+00-0.484287738800D-07
    0.960654328800D+00 0.281406250000D+03 0.441505674415D+00-0.840320717017D-08
   -0.322156276245D-09 0.100000000000D+01 0.199700000000D+04 0.000000000000D+00
    0.200000000000D+01 0.000000000000D+00 0.232830643654D-08 0.280000000000D+02
    0.213960000000D+06 0.400000000000D+01 0.000000000000D+00 0.000000000000D+00
 4 18  4 17 12  0  0.0 0.535403378308D-04 0.306954461848D-11 0.000000000000D+00
    0.150000000000D+02-0.680625000000D+02 0.561201947742D-08-0.147908437296D+01
   -0.350363552570D-05 0.982472545002D-02 0.236369669437D-05 0.515368740654D+04
    0.216000000000D+06 0.290572643280D-06 0.221564714609D+01 0.186264514923D-07
    0.979243160700D+00 0.343312500000D+03 0.914143433446D+00-0.822284251440D-08
   -0.377515725045D-09 0.100000000000D+01 0.199700000000D+04 0.000000000000D+00
    0.200000000000D+01 0.630000000000D+02-0.195577740669D-07 0.150000000000D+02
    0.208818000000D+06 0.400000000000D+01 0.000000000000D+00 0.000000000000D+00
 5 18  4 17 12  0  0.0-0.970205292106D-05 0.795807864051D-12 0.000000000000D+00
    0.370000000000D+02-0.365312500000D+02 0.536058043255D-08-0.187586146169D+01
   -0.212714076042D-05 0.529847864527D-02 0.490434467792D-05 0.515367390251D+04
    0.216000000000D+06 0.558793544769D-07-0.974813248725D+00-0.279396772385D-07
    0.947539079503D+00 0.273218750000D+03 0.609553114951D+00-0.848321050262D-08
   -0.218580533328D-09 0.100000000000D+01 0.199700000000D+04 0.000000000000D+00
    0.200000000000D+01 0.000000000000D+00-0.111758708954D-07 0.370000000000D+02
    0.208800000000D+06 0.400000000000D+01 0.000000000000D+00 0.000000000000D+00
 6 18  4 17 12  0  0.0 0.408409163356D-03-0.181898940355D-11 0.000000000000D+00
    0.870000000000D+02 0.523437500000D+02 0.438875423780D-08 0.158856100039D+01
    0.281631946564D-05 0.121189071797D-02 0.815652310848D-05 0.515360337639D+04
    0.216000000000D+06 0.577419996262D-07-0.200515349883D+01 0.130385160446D-07
    0.970273395530D+00 0.226375000000D+03-0.111910178198D+01-0.800711924294D-08
    0.739316509786D-09 0.100000000000D+01 0.199700000000D+04 0.000000000000D+00
    0.200000000000D+01 0.000000000000D+00 0.465661287308D-08 0.870000000000D+02
    0.208800000000D+06 0.400000000000D+01 0.000000000000D+00 0.000000000000D+00
 7 18  4 17 12  0  0.0 0.206124037504D-03-0.602540239925D-11 0.000000000000D+00
    0.300000000000D+02 0.118093750000D+03 0.483055835500D-08 0.723584365199D+00
    0.640191137791D-05 0.114080165513D-01 0.505521893501D-05 0.515367678261D+04
    0.216000000000D+06-0.447034835815D-07 0.115793529204D+01 0.165775418282D-06
    0.958882138136D+00 0.279437500000D+03-0.253980181269D+01-0.854464163291D-08
    0.177507393895D-09 0.100000000000D+01 0.199700000000D+04 0.000000000000D+00
    0.200000000000D+01 0.000000000000D+00-0.111758708954D-07 0.300000000000D+02
    0.208800000000D+06 0.400000000000D+01 0.000000000000D+00 0.000000000000D+00
 8 18  4 17 12  0  0.0-0.981460325420D-04-0.136424205266D-11 0.000000000000D+00
    0.920000000000D+02-0.732812500000D+02 0.386623247267D-08-0.239536150607D+01
   -0.376254320145D-05 0.349265546538D-02 0.119954347610D-04 0.515356028557D+04
    0.216000000000D+06-0.186264514923D-07-0.306103821648D+01 0.782310962677D-07
    0.969370188445D+00 0.155906250000D+03-0.478981314146D+00-0.773460789175D-08
   -0.121433629627D-10 0.100000000000D+01 0.199700000000D+04 0.000000000000D+00
    0.280000000000D+01 0.000000000000D+00 0.512227416039D-08 0.920000000000D+02
    0.208800000000D+06 0.400000000000D+01 0.000000000000D+00 0.000000000000D+00
 9 18  4 17 12  0  0.0 0.511435791850D-03 0.125055521494D-11 0.000000000000D+00
    0.260000000000D+02 0.251875000000D+02 0.459126248131D-08-0.253064259085D+01
    0.131875276566D-05 0.104219012428D-02 0.127367675304D-04 0.515365034294D+04
    0.216000000000D+06 0.186264514923D-07 0.803036110249D-01 0.279396772385D-07
    0.953327951673D+00 0.133312500000D+03 0.183865768480D+01-0.791854404269D-08
   -0.271797029328D-09 0.100000000000D+01 0.199700000000D+04 0.000000000000D+00
    0.200000000000D+01 0.000000000000D+00 0.931322574616D-09 0.260000000000D+02
    0.208800000000D+06 0.000000000000D+00 0.000000000000D+00 0.000000000000D+00
10 18  4 17 12  0  0.0 0.179501716048D-03 0.261479726760D-11 0.000000000000D+00
    0.230000000000D+02-0.324062500000D+02 0.506056796468D-08-0.699573868197D+00
   -0.162050127983D-05 0.346290867310D-02 0.486150383949D-05 0.515365651894D+04
    0.216000000000D+06 0.484287738800D-07-0.957020503197D+00 0.298023223877D-07
    0.960753422482D+00 0.284093750000D+03-0.275641048240D+01-0.838570635153D-08
   -0.221437798653D-09 0.100000000000D+01 0.199700000000D+04 0.000000000000D+00
    0.200000000000D+01 0.000000000000D+00 0.186264514923D-08 0.230000000000D+02
    0.208830000000D+06 0.000000000000D+00 0.000000000000D+00 0.000000000000D+00
11 18  4 17 12  0  0.0-0.737358815968D-03 0.341060513165D-12 0.000000000000D+00
    0.240000000000D+02 0.223750000000D+02 0.571809532448D-08 0.704938516067D+00
    0.108219683170D-05 0.167461535893D-01 0.111050903797D-04 0.515362850380D+04
    0.216000000000D+06-0.193715095520D-06-0.242111201100D+01-0.221654772759D-06
    0.904902996248D+00 0.139562500000D+03 0.175222686084D+01-0.889251326601D-08
    0.509306928964D-09 0.100000000000D+01 0.199700000000D+04 0.000000000000D+00
    0.200000000000D+01 0.000000000000D+00-0.121071934700D-07 0.240000000000D+02
    0.208800000000D+06 0.400000000000D+01 0.000000000000D+00 0.000000000000D+00
